[{"OBJECT_NAME":"CUTE-1 (CO-55)","OBJECT_ID":"2003-031E","EPOCH":"2026-03-05T13:25:38.831808","MEAN_MOTION":14.24262275,"ECCENTRICITY":0.001055,"INCLINATION":98.6779,"RA_OF_ASC_NODE":74.4095,"ARG_OF_PERICENTER":123.2151,"MEAN_ANOMALY":237.0041,"EPHEMERIS_TYPE":0,"CLASSIFICATION_TYPE":"U","NORAD_CAT_ID":27844,"ELEMENT_SET_NO":999,"REV_AT_EPOCH":17692,"BSTAR":0.0002266,"MEAN_MOTION_DOT":4.79e-6,"MEAN_MOTION_DDOT":0},{"OBJECT_NAME":"CUBESAT XI-IV (CO-57)","OBJECT_ID":"2003-031J","EPOCH":"2026-03-05T11:54:39.178656","MEAN_MOTION":14.23557892,"ECCENTRICITY":0.0010209,"INCLINATION":98.6809,"RA_OF_ASC_NODE":74.143,"ARG_OF_PERICENTER":139.8999,"MEAN_ANOMALY":220.2934,"EPHEMERIS_TYPE":0,"CLASSIFICATION_TYPE":"U","NORAD_CAT_ID":27848,"ELEMENT_SET_NO":999,"REV_AT_EPOCH":17662,"BSTAR":0.00019211,"MEAN_MOTION_DOT":3.94e-6,"MEAN_MOTION_DDOT":0},{"OBJECT_NAME":"CUBESAT XI-V","OBJECT_ID":"2005-043F","EPOCH":"2026-03-05T08:47:31.622208","MEAN_MOTION":14.72297036,"ECCENTRICITY":0.0014469,"INCLINATION":98.2821,"RA_OF_ASC_NODE":217.9088,"ARG_OF_PERICENTER":171.1666,"MEAN_ANOMALY":188.9798,"EPHEMERIS_TYPE":0,"CLASSIFICATION_TYPE":"U","NORAD_CAT_ID":28895,"ELEMENT_SET_NO":999,"REV_AT_EPOCH":8647,"BSTAR":0.00047811,"MEAN_MOTION_DOT":2.974e-5,"MEAN_MOTION_DDOT":0},{"OBJECT_NAME":"CUTE-1.7+APD II (CO-65)","OBJECT_ID":"2008-021C","EPOCH":"2026-03-05T17:35:46.076352","MEAN_MOTION":15.08305588,"ECCENTRICITY":0.001017,"INCLINATION":97.8206,"RA_OF_ASC_NODE":44.1338,"ARG_OF_PERICENTER":32.0987,"MEAN_ANOMALY":328.0858,"EPHEMERIS_TYPE":0,"CLASSIFICATION_TYPE":"U","NORAD_CAT_ID":32785,"ELEMENT_SET_NO":999,"REV_AT_EPOCH":96959,"BSTAR":0.00058081,"MEAN_MOTION_DOT":8.959e-5,"MEAN_MOTION_DDOT":0},{"OBJECT_NAME":"CANX-2","OBJECT_ID":"2008-021H","EPOCH":"2026-03-05T17:12:56.553408","MEAN_MOTION":15.04745376,"ECCENTRICITY":0.0011982,"INCLINATION":97.8563,"RA_OF_ASC_NODE":42.6024,"ARG_OF_PERICENTER":42.6046,"MEAN_ANOMALY":317.6107,"EPHEMERIS_TYPE":0,"CLASSIFICATION_TYPE":"U","NORAD_CAT_ID":32790,"ELEMENT_SET_NO":999,"REV_AT_EPOCH":96924,"BSTAR":0.00046245,"MEAN_MOTION_DOT":6.465e-5,"MEAN_MOTION_DDOT":0},{"OBJECT_NAME":"SEEDS II (CO-66)","OBJECT_ID":"2008-021J","EPOCH":"2026-03-05T12:52:15.449952","MEAN_MOTION":15.2886444,"ECCENTRICITY":0.0002167,"INCLINATION":97.7512,"RA_OF_ASC_NODE":57.7941,"ARG_OF_PERICENTER":12.57,"MEAN_ANOMALY":347.5593,"EPHEMERIS_TYPE":0,"CLASSIFICATION_TYPE":"U","NORAD_CAT_ID":32791,"ELEMENT_SET_NO":999,"REV_AT_EPOCH":97143,"BSTAR":0.00089406,"MEAN_MOTION_DOT":0.00025054,"MEAN_MOTION_DDOT":0},{"OBJECT_NAME":"SWISSCUBE","OBJECT_ID":"2009-051B","EPOCH":"2026-03-05T17:08:06.392832","MEAN_MOTION":14.62247075,"ECCENTRICITY":0.0006806,"INCLINATION":98.4101,"RA_OF_ASC_NODE":330.7863,"ARG_OF_PERICENTER":164.5501,"MEAN_ANOMALY":195.5909,"EPHEMERIS_TYPE":0,"CLASSIFICATION_TYPE":"U","NORAD_CAT_ID":35932,"ELEMENT_SET_NO":999,"REV_AT_EPOCH":87403,"BSTAR":0.00036858,"MEAN_MOTION_DOT":1.809e-5,"MEAN_MOTION_DDOT":0},{"OBJECT_NAME":"BEESAT-1","OBJECT_ID":"2009-051C","EPOCH":"2026-03-05T16:05:50.964864","MEAN_MOTION":14.61522598,"ECCENTRICITY":0.000503,"INCLINATION":98.4032,"RA_OF_ASC_NODE":330.5905,"ARG_OF_PERICENTER":175.5274,"MEAN_ANOMALY":184.5972,"EPHEMERIS_TYPE":0,"CLASSIFICATION_TYPE":"U","NORAD_CAT_ID":35933,"ELEMENT_SET_NO":999,"REV_AT_EPOCH":87406,"BSTAR":0.00031878,"MEAN_MOTION_DOT":1.533e-5,"MEAN_MOTION_DDOT":0},{"OBJECT_NAME":"ITUPSAT1","OBJECT_ID":"2009-051E","EPOCH":"2026-03-05T17:00:16.553952","MEAN_MOTION":14.60258403,"ECCENTRICITY":0.0006991,"INCLINATION":98.4119,"RA_OF_ASC_NODE":329.9276,"ARG_OF_PERICENTER":190.8794,"MEAN_ANOMALY":169.2255,"EPHEMERIS_TYPE":0,"CLASSIFICATION_TYPE":"U","NORAD_CAT_ID":35935,"ELEMENT_SET_NO":999,"REV_AT_EPOCH":87363,"BSTAR":0.00029735,"MEAN_MOTION_DOT":1.387e-5,"MEAN_MOTION_DDOT":0},{"OBJECT_NAME":"TISAT 1","OBJECT_ID":"2010-035E","EPOCH":"2026-03-05T00:58:14.371104","MEAN_MOTION":15.27357031,"ECCENTRICITY":5.42e-5,"INCLINATION":98.065,"RA_OF_ASC_NODE":1.7537,"ARG_OF_PERICENTER":169.476,"MEAN_ANOMALY":190.6489,"EPHEMERIS_TYPE":0,"CLASSIFICATION_TYPE":"U","NORAD_CAT_ID":36799,"ELEMENT_SET_NO":999,"REV_AT_EPOCH":85178,"BSTAR":0.0010243309,"MEAN_MOTION_DOT":0.00027432,"MEAN_MOTION_DDOT":0},{"OBJECT_NAME":"AEROCUBE 4.5A","OBJECT_ID":"2012-048K","EPOCH":"2026-03-05T07:18:50.152896","MEAN_MOTION":15.6108086,"ECCENTRICITY":0.0041501,"INCLINATION":64.6385,"RA_OF_ASC_NODE":35.3155,"ARG_OF_PERICENTER":213.3687,"MEAN_ANOMALY":146.4843,"EPHEMERIS_TYPE":0,"CLASSIFICATION_TYPE":"U","NORAD_CAT_ID":38767,"ELEMENT_SET_NO":999,"REV_AT_EPOCH":35630,"BSTAR":0.0011277,"MEAN_MOTION_DOT":0.00100707,"MEAN_MOTION_DDOT":0},{"OBJECT_NAME":"STRAND-1","OBJECT_ID":"2013-009E","EPOCH":"2026-03-05T10:57:19.501344","MEAN_MOTION":14.37090623,"ECCENTRICITY":0.0008749,"INCLINATION":98.3882,"RA_OF_ASC_NODE":247.2534,"ARG_OF_PERICENTER":174.1071,"MEAN_ANOMALY":186.022,"EPHEMERIS_TYPE":0,"CLASSIFICATION_TYPE":"U","NORAD_CAT_ID":39090,"ELEMENT_SET_NO":999,"REV_AT_EPOCH":68216,"BSTAR":0.00019271,"MEAN_MOTION_DOT":5.3e-6,"MEAN_MOTION_DDOT":0},{"OBJECT_NAME":"BRITE-AUSTRIA","OBJECT_ID":"2013-009F","EPOCH":"2026-03-05T11:52:46.089696","MEAN_MOTION":14.36493326,"ECCENTRICITY":0.0010106,"INCLINATION":98.3951,"RA_OF_ASC_NODE":246.5075,"ARG_OF_PERICENTER":183.5653,"MEAN_ANOMALY":176.5463,"EPHEMERIS_TYPE":0,"CLASSIFICATION_TYPE":"U","NORAD_CAT_ID":39091,"ELEMENT_SET_NO":999,"REV_AT_EPOCH":68216,"BSTAR":0.00013268,"MEAN_MOTION_DOT":3.47e-6,"MEAN_MOTION_DDOT":0},{"OBJECT_NAME":"NEE-01 PEGASO","OBJECT_ID":"2013-018B","EPOCH":"2026-03-05T14:41:29.768640","MEAN_MOTION":14.93056867,"ECCENTRICITY":0.0013675,"INCLINATION":98.1048,"RA_OF_ASC_NODE":205.4803,"ARG_OF_PERICENTER":141.5828,"MEAN_ANOMALY":218.6367,"EPHEMERIS_TYPE":0,"CLASSIFICATION_TYPE":"U","NORAD_CAT_ID":39151,"ELEMENT_SET_NO":999,"REV_AT_EPOCH":69524,"BSTAR":0.0005501,"MEAN_MOTION_DOT":5.677e-5,"MEAN_MOTION_DDOT":0},{"OBJECT_NAME":"POPACS 2","OBJECT_ID":"2013-055E","EPOCH":"2026-03-05T12:59:07.660032","MEAN_MOTION":14.87548824,"ECCENTRICITY":0.0431489,"INCLINATION":80.9885,"RA_OF_ASC_NODE":262.5578,"ARG_OF_PERICENTER":166.0822,"MEAN_ANOMALY":195.2751,"EPHEMERIS_TYPE":0,"CLASSIFICATION_TYPE":"U","NORAD_CAT_ID":39269,"ELEMENT_SET_NO":999,"REV_AT_EPOCH":64778,"BSTAR":0.00053115,"MEAN_MOTION_DOT":0.00030408,"MEAN_MOTION_DDOT":0},{"OBJECT_NAME":"POPACS 3","OBJECT_ID":"2013-055F","EPOCH":"2026-03-05T18:10:56.548416","MEAN_MOTION":14.5382125,"ECCENTRICITY":0.0561003,"INCLINATION":81.0058,"RA_OF_ASC_NODE":341.167,"ARG_OF_PERICENTER":24.6518,"MEAN_ANOMALY":338.0405,"EPHEMERIS_TYPE":0,"CLASSIFICATION_TYPE":"U","NORAD_CAT_ID":39270,"ELEMENT_SET_NO":999,"REV_AT_EPOCH":62351,"BSTAR":0.00043816,"MEAN_MOTION_DOT":0.0001819,"MEAN_MOTION_DDOT":0},{"OBJECT_NAME":"ZACUBE-1 (TSHEPISOSAT)","OBJECT_ID":"2013-066B","EPOCH":"2026-03-05T11:04:43.779648","MEAN_MOTION":15.00273125,"ECCENTRICITY":0.0041905,"INCLINATION":97.8184,"RA_OF_ASC_NODE":26.2647,"ARG_OF_PERICENTER":234.2081,"MEAN_ANOMALY":125.5244,"EPHEMERIS_TYPE":0,"CLASSIFICATION_TYPE":"U","NORAD_CAT_ID":39417,"ELEMENT_SET_NO":999,"REV_AT_EPOCH":66517,"BSTAR":0.00051118,"MEAN_MOTION_DOT":6.46e-5,"MEAN_MOTION_DDOT":0}]
